{
  "type": "FeatureCollection",
  "name": "Gare du Nord pedestrian isochrones",
  "generatedAt": "2026-07-24T21:05:34.636Z",
  "method": "osrm-route-sampled-contours",
  "assumptions": [
    "The routing.openstreetmap.de routed-foot endpoint does not provide a native isochrone endpoint.",
    "Contours are interpolated between sampled pedestrian route durations.",
    "The resulting contours are objective routing-derived estimates, not subjective accommodation zones."
  ],
  "features": [
    {
      "type": "Feature",
      "properties": {
        "id": "walk_20_min",
        "type": "walking_isochrone",
        "minutes": 20,
        "label": "20-minute walking contour",
        "source": "OSRM table service sampled on a regular grid, contoured with d3-contour",
        "providerUrl": "https://routing.openstreetmap.de/routed-foot/table/v1/foot",
        "grid": {
          "minLon": 2.329,
          "maxLon": 2.382,
          "minLat": 48.862,
          "maxLat": 48.895,
          "width": 41,
          "height": 41
        }
      },
      "geometry": {
        "type": "MultiPolygon",
        "coordinates": [
          [
            [
              [
                2.3696671,
                48.8756125
              ],
              [
                2.3694125,
                48.8760835
              ],
              [
                2.3691437,
                48.8756125
              ],
              [
                2.3694125,
                48.875592
              ],
              [
                2.3696671,
                48.8756125
              ]
            ]
          ],
          [
            [
              [
                2.3615824,
                48.8698375
              ],
              [
                2.3627875,
                48.8704035
              ],
              [
                2.3629094,
                48.8706625
              ],
              [
                2.3627875,
                48.8712289
              ],
              [
                2.3627378,
                48.8714875
              ],
              [
                2.3627875,
                48.8715288
              ],
              [
                2.3641125,
                48.872243
              ],
              [
                2.3643188,
                48.8723125
              ],
              [
                2.3651809,
                48.8731375
              ],
              [
                2.3647369,
                48.8739625
              ],
              [
                2.3654375,
                48.874745
              ],
              [
                2.3654647,
                48.8747875
              ],
              [
                2.366154,
                48.8756125
              ],
              [
                2.3667625,
                48.8758658
              ],
              [
                2.3680875,
                48.8759057
              ],
              [
                2.3692861,
                48.8764375
              ],
              [
                2.3694125,
                48.8766858
              ],
              [
                2.3707375,
                48.8769925
              ],
              [
                2.3713185,
                48.8772625
              ],
              [
                2.3716405,
                48.8780875
              ],
              [
                2.371569,
                48.8789125
              ],
              [
                2.3707375,
                48.8794566
              ],
              [
                2.3705981,
                48.8797375
              ],
              [
                2.3707375,
                48.8799705
              ],
              [
                2.3714102,
                48.8805625
              ],
              [
                2.3720625,
                48.8809155
              ],
              [
                2.3732658,
                48.8813875
              ],
              [
                2.3732347,
                48.8822125
              ],
              [
                2.3730897,
                48.8830375
              ],
              [
                2.3724879,
                48.8838625
              ],
              [
                2.3725761,
                48.8846875
              ],
              [
                2.3720625,
                48.8852845
              ],
              [
                2.371788,
                48.8855125
              ],
              [
                2.3707375,
                48.885675
              ],
              [
                2.3696364,
                48.8863375
              ],
              [
                2.3697481,
                48.8871625
              ],
              [
                2.3694125,
                48.8873442
              ],
              [
                2.3685381,
                48.8879875
              ],
              [
                2.3680875,
                48.8883437
              ],
              [
                2.3671184,
                48.8879875
              ],
              [
                2.3667625,
                48.8878832
              ],
              [
                2.3665527,
                48.8879875
              ],
              [
                2.3654375,
                48.8888066
              ],
              [
                2.365429,
                48.8888125
              ],
              [
                2.3653652,
                48.8896375
              ],
              [
                2.3642024,
                48.8904625
              ],
              [
                2.3641125,
                48.8905459
              ],
              [
                2.3638294,
                48.8904625
              ],
              [
                2.3627875,
                48.8901484
              ],
              [
                2.3623968,
                48.8904625
              ],
              [
                2.3615,
                48.8912875
              ],
              [
                2.3614625,
                48.8913066
              ],
              [
                2.3601375,
                48.8917295
              ],
              [
                2.3599131,
                48.8912875
              ],
              [
                2.3588125,
                48.890507
              ],
              [
                2.3574875,
                48.8912615
              ],
              [
                2.3574453,
                48.8912875
              ],
              [
                2.3561625,
                48.8916189
              ],
              [
                2.3548375,
                48.8915547
              ],
              [
                2.3535125,
                48.8914436
              ],
              [
                2.3521875,
                48.8914696
              ],
              [
                2.3516284,
                48.8912875
              ],
              [
                2.3508625,
                48.8908718
              ],
              [
                2.3495375,
                48.8905165
              ],
              [
                2.349297,
                48.8904625
              ],
              [
                2.3485502,
                48.8896375
              ],
              [
                2.3482125,
                48.8894788
              ],
              [
                2.3475094,
                48.8896375
              ],
              [
                2.3468875,
                48.8898311
              ],
              [
                2.3462347,
                48.8896375
              ],
              [
                2.3455625,
                48.8892755
              ],
              [
                2.3450416,
                48.8888125
              ],
              [
                2.3449463,
                48.8879875
              ],
              [
                2.3442375,
                48.8872551
              ],
              [
                2.3441317,
                48.8871625
              ],
              [
                2.3429125,
                48.886444
              ],
              [
                2.3426747,
                48.8863375
              ],
              [
                2.3415875,
                48.8857102
              ],
              [
                2.3411759,
                48.8855125
              ],
              [
                2.3404538,
                48.8846875
              ],
              [
                2.3402625,
                48.8844632
              ],
              [
                2.3398729,
                48.8838625
              ],
              [
                2.3398517,
                48.8830375
              ],
              [
                2.3399178,
                48.8822125
              ],
              [
                2.3391529,
                48.8813875
              ],
              [
                2.3389375,
                48.8807416
              ],
              [
                2.3388867,
                48.8805625
              ],
              [
                2.3389375,
                48.8805229
              ],
              [
                2.3394822,
                48.8797375
              ],
              [
                2.3399628,
                48.8789125
              ],
              [
                2.3402625,
                48.8781482
              ],
              [
                2.3402847,
                48.8780875
              ],
              [
                2.3402625,
                48.8780271
              ],
              [
                2.340008,
                48.8772625
              ],
              [
                2.3400186,
                48.8764375
              ],
              [
                2.3402625,
                48.8756554
              ],
              [
                2.3404405,
                48.8756125
              ],
              [
                2.3415875,
                48.8753633
              ],
              [
                2.3418291,
                48.8747875
              ],
              [
                2.3429125,
                48.8741535
              ],
              [
                2.3439118,
                48.8739625
              ],
              [
                2.3442375,
                48.8738269
              ],
              [
                2.3450139,
                48.8731375
              ],
              [
                2.3455625,
                48.872838
              ],
              [
                2.3462779,
                48.8723125
              ],
              [
                2.3468875,
                48.8720497
              ],
              [
                2.3480261,
                48.8714875
              ],
              [
                2.3482125,
                48.8713569
              ],
              [
                2.3495375,
                48.8711902
              ],
              [
                2.3506772,
                48.8706625
              ],
              [
                2.3508625,
                48.8705056
              ],
              [
                2.3516441,
                48.8706625
              ],
              [
                2.3521875,
                48.8707531
              ],
              [
                2.352305,
                48.8706625
              ],
              [
                2.3530708,
                48.8698375
              ],
              [
                2.3535125,
                48.8696114
              ],
              [
                2.3542388,
                48.8698375
              ],
              [
                2.3548375,
                48.8699848
              ],
              [
                2.3561625,
                48.8699723
              ],
              [
                2.3566392,
                48.8698375
              ],
              [
                2.3574875,
                48.869559
              ],
              [
                2.3585824,
                48.8698375
              ],
              [
                2.3588125,
                48.8699074
              ],
              [
                2.3599347,
                48.8698375
              ],
              [
                2.3601375,
                48.8698198
              ],
              [
                2.3614625,
                48.8698148
              ],
              [
                2.3615824,
                48.8698375
              ]
            ],
            [
              [
                2.3654375,
                48.885363
              ],
              [
                2.3651556,
                48.8855125
              ],
              [
                2.3652187,
                48.8863375
              ],
              [
                2.3654375,
                48.8868003
              ],
              [
                2.3661784,
                48.8863375
              ],
              [
                2.3657604,
                48.8855125
              ],
              [
                2.3654375,
                48.885363
              ]
            ]
          ]
        ]
      }
    },
    {
      "type": "Feature",
      "properties": {
        "id": "walk_15_min",
        "type": "walking_isochrone",
        "minutes": 15,
        "label": "15-minute walking contour",
        "source": "OSRM table service sampled on a regular grid, contoured with d3-contour",
        "providerUrl": "https://routing.openstreetmap.de/routed-foot/table/v1/foot",
        "grid": {
          "minLon": 2.329,
          "maxLon": 2.382,
          "minLat": 48.862,
          "maxLat": 48.895,
          "width": 41,
          "height": 41
        }
      },
      "geometry": {
        "type": "MultiPolygon",
        "coordinates": [
          [
            [
              [
                2.3593399,
                48.8731375
              ],
              [
                2.3601375,
                48.8739134
              ],
              [
                2.3602506,
                48.8739625
              ],
              [
                2.361186,
                48.8747875
              ],
              [
                2.3614625,
                48.8749716
              ],
              [
                2.3626862,
                48.8756125
              ],
              [
                2.3626274,
                48.8764375
              ],
              [
                2.3627875,
                48.8766113
              ],
              [
                2.3641125,
                48.8772162
              ],
              [
                2.3644364,
                48.8772625
              ],
              [
                2.3654375,
                48.8774412
              ],
              [
                2.3658985,
                48.8780875
              ],
              [
                2.3658697,
                48.8789125
              ],
              [
                2.3667625,
                48.8791649
              ],
              [
                2.3680875,
                48.8797375
              ],
              [
                2.3680875,
                48.8797375
              ],
              [
                2.3680875,
                48.8797375
              ],
              [
                2.367713,
                48.8805625
              ],
              [
                2.3680875,
                48.8810208
              ],
              [
                2.3683732,
                48.8813875
              ],
              [
                2.3684907,
                48.8822125
              ],
              [
                2.3680875,
                48.8826133
              ],
              [
                2.3678655,
                48.8830375
              ],
              [
                2.3678169,
                48.8838625
              ],
              [
                2.3669257,
                48.8846875
              ],
              [
                2.3667625,
                48.8848953
              ],
              [
                2.3654375,
                48.8848467
              ],
              [
                2.3641826,
                48.8855125
              ],
              [
                2.3642475,
                48.8863375
              ],
              [
                2.3641125,
                48.8865001
              ],
              [
                2.3627875,
                48.8870757
              ],
              [
                2.3626147,
                48.8871625
              ],
              [
                2.3614625,
                48.887667
              ],
              [
                2.3609305,
                48.8879875
              ],
              [
                2.3601375,
                48.8883611
              ],
              [
                2.3588125,
                48.8886167
              ],
              [
                2.3586857,
                48.8888125
              ],
              [
                2.3574875,
                48.8893119
              ],
              [
                2.3564646,
                48.8896375
              ],
              [
                2.3561625,
                48.8898224
              ],
              [
                2.3559091,
                48.8896375
              ],
              [
                2.3548375,
                48.8888238
              ],
              [
                2.3535125,
                48.888859
              ],
              [
                2.3534509,
                48.8888125
              ],
              [
                2.3521875,
                48.8880557
              ],
              [
                2.3520632,
                48.8879875
              ],
              [
                2.3508625,
                48.887447
              ],
              [
                2.3495375,
                48.887265
              ],
              [
                2.3492144,
                48.8871625
              ],
              [
                2.3482125,
                48.8867414
              ],
              [
                2.3476902,
                48.8863375
              ],
              [
                2.3468875,
                48.8858344
              ],
              [
                2.3462918,
                48.8855125
              ],
              [
                2.3456643,
                48.8846875
              ],
              [
                2.3455625,
                48.8846082
              ],
              [
                2.3445883,
                48.8838625
              ],
              [
                2.3446464,
                48.8830375
              ],
              [
                2.3442375,
                48.8824121
              ],
              [
                2.3441335,
                48.8822125
              ],
              [
                2.3440628,
                48.8813875
              ],
              [
                2.3442375,
                48.8808205
              ],
              [
                2.3444589,
                48.8805625
              ],
              [
                2.3442375,
                48.8803771
              ],
              [
                2.3438186,
                48.8797375
              ],
              [
                2.3442359,
                48.8789125
              ],
              [
                2.3442375,
                48.8789114
              ],
              [
                2.3448474,
                48.8780875
              ],
              [
                2.3447494,
                48.8772625
              ],
              [
                2.3455625,
                48.8768978
              ],
              [
                2.3464127,
                48.8764375
              ],
              [
                2.3468875,
                48.8756622
              ],
              [
                2.3469661,
                48.8756125
              ],
              [
                2.3482125,
                48.8753432
              ],
              [
                2.3491199,
                48.8747875
              ],
              [
                2.3495375,
                48.8746299
              ],
              [
                2.3504537,
                48.8739625
              ],
              [
                2.3508625,
                48.8734915
              ],
              [
                2.3521875,
                48.8735667
              ],
              [
                2.3529992,
                48.8739625
              ],
              [
                2.3535125,
                48.8743995
              ],
              [
                2.3540237,
                48.8739625
              ],
              [
                2.3545324,
                48.8731375
              ],
              [
                2.3548375,
                48.8727819
              ],
              [
                2.3561625,
                48.8727706
              ],
              [
                2.3574875,
                48.8725684
              ],
              [
                2.3588125,
                48.8726295
              ],
              [
                2.3593399,
                48.8731375
              ]
            ]
          ]
        ]
      }
    },
    {
      "type": "Feature",
      "properties": {
        "id": "walk_10_min",
        "type": "walking_isochrone",
        "minutes": 10,
        "label": "10-minute walking contour",
        "source": "OSRM table service sampled on a regular grid, contoured with d3-contour",
        "providerUrl": "https://routing.openstreetmap.de/routed-foot/table/v1/foot",
        "grid": {
          "minLon": 2.329,
          "maxLon": 2.382,
          "minLat": 48.862,
          "maxLat": 48.895,
          "width": 41,
          "height": 41
        }
      },
      "geometry": {
        "type": "MultiPolygon",
        "coordinates": [
          [
            [
              [
                2.3580404,
                48.8764375
              ],
              [
                2.3588125,
                48.876908
              ],
              [
                2.3593205,
                48.8772625
              ],
              [
                2.3594619,
                48.8780875
              ],
              [
                2.3595811,
                48.8789125
              ],
              [
                2.3601375,
                48.8793276
              ],
              [
                2.3614625,
                48.8795689
              ],
              [
                2.3627875,
                48.8795765
              ],
              [
                2.3629714,
                48.8797375
              ],
              [
                2.3637969,
                48.8805625
              ],
              [
                2.3641125,
                48.881283
              ],
              [
                2.3641708,
                48.8813875
              ],
              [
                2.3641125,
                48.8814967
              ],
              [
                2.3635786,
                48.8822125
              ],
              [
                2.3628478,
                48.8830375
              ],
              [
                2.3627875,
                48.8832904
              ],
              [
                2.3614625,
                48.8838088
              ],
              [
                2.3613711,
                48.8838625
              ],
              [
                2.3604527,
                48.8846875
              ],
              [
                2.3601375,
                48.8848429
              ],
              [
                2.3588125,
                48.8854943
              ],
              [
                2.3587831,
                48.8855125
              ],
              [
                2.3575984,
                48.8863375
              ],
              [
                2.3574875,
                48.8865312
              ],
              [
                2.3568994,
                48.8863375
              ],
              [
                2.3561625,
                48.8860836
              ],
              [
                2.3548375,
                48.8858817
              ],
              [
                2.3535125,
                48.8858164
              ],
              [
                2.3530029,
                48.8855125
              ],
              [
                2.3521875,
                48.8848858
              ],
              [
                2.3519378,
                48.8846875
              ],
              [
                2.3508625,
                48.8842086
              ],
              [
                2.3495902,
                48.8838625
              ],
              [
                2.3495375,
                48.8838361
              ],
              [
                2.3490333,
                48.8830375
              ],
              [
                2.3494522,
                48.8822125
              ],
              [
                2.3488286,
                48.8813875
              ],
              [
                2.3489995,
                48.8805625
              ],
              [
                2.3494008,
                48.8797375
              ],
              [
                2.348898,
                48.8789125
              ],
              [
                2.3495375,
                48.8783924
              ],
              [
                2.3500307,
                48.8780875
              ],
              [
                2.3508625,
                48.8773035
              ],
              [
                2.3509177,
                48.8772625
              ],
              [
                2.3521875,
                48.8767125
              ],
              [
                2.3535125,
                48.8770251
              ],
              [
                2.3547515,
                48.8764375
              ],
              [
                2.3548375,
                48.8763944
              ],
              [
                2.3561625,
                48.8758407
              ],
              [
                2.3574875,
                48.8757658
              ],
              [
                2.3580404,
                48.8764375
              ]
            ]
          ]
        ]
      }
    }
  ]
}
